{
  "type": "FeatureCollection",
  "features": [
    {
      "type": "Feature",
      "properties": {
        "norad_id": 35890,
        "name": "COSMOS 2251 DEB",
        "group": "cosmos-2251-debris",
        "lat": 6.425708355038078,
        "lon": -125.46941691014884,
        "alt_km": 665.2764947623491,
        "timestamp": "2025-12-17T23:38:07.250256+00:00",
        "meta_object_name": "COSMOS 2251 DEB",
        "meta_object_id": "1993-036AUD",
        "meta_epoch": "2025-12-16T22:53:46.078656",
        "meta_mean_motion": 14.57543512,
        "meta_eccentricity": 0.00539437,
        "meta_inclination": 73.9365,
        "meta_ra_of_asc_node": 234.6414,
        "meta_arg_of_pericenter": 358.5125,
        "meta_mean_anomaly": 1.5869,
        "meta_ephemeris_type": 0,
        "meta_classification_type": "U",
        "meta_norad_cat_id": 35890,
        "meta_element_set_no": 999,
        "meta_rev_at_epoch": 65212,
        "meta_bstar": 0.0012168345,
        "meta_mean_motion_dot": 5.621e-05,
        "meta_mean_motion_ddot": 0,
        "tle_line1": "1 35890U 93036AUD 25350.95400554  .00005621  00000+0  12168-2 0  9996",
        "tle_line2": "2 35890  73.9365 234.6414 0053943 358.5125   1.5869 14.57543512652129"
      },
      "geometry": {
        "type": "Point",
        "coordinates": [
          -125.46941691014884,
          6.425708355038078
        ]
      }
    },
    {
      "type": "Feature",
      "properties": {
        "norad_id": 35891,
        "name": "COSMOS 2251 DEB",
        "group": "cosmos-2251-debris",
        "lat": -69.76020368603098,
        "lon": -46.232266051046054,
        "alt_km": 450.9063457537186,
        "timestamp": "2025-12-17T23:38:07.250266+00:00",
        "meta_object_name": "COSMOS 2251 DEB",
        "meta_object_id": "1993-036AUE",
        "meta_epoch": "2025-12-17T13:07:25.898592",
        "meta_mean_motion": 15.33734006,
        "meta_eccentricity": 0.00426405,
        "meta_inclination": 73.989,
        "meta_ra_of_asc_node": 83.557,
        "meta_arg_of_pericenter": 213.2517,
        "meta_mean_anomaly": 146.6008,
        "meta_ephemeris_type": 0,
        "meta_classification_type": "U",
        "meta_norad_cat_id": 35891,
        "meta_element_set_no": 999,
        "meta_rev_at_epoch": 67294,
        "meta_bstar": 0.0010321735,
        "meta_mean_motion_dot": 0.00034787,
        "meta_mean_motion_ddot": 0,
        "tle_line1": "1 35891U 93036AUE 25351.54682753  .00034787  00000+0  10322-2 0  9991",
        "tle_line2": "2 35891  73.9890  83.5570 0042640 213.2517 146.6008 15.33734006672944"
      },
      "geometry": {
        "type": "Point",
        "coordinates": [
          -46.232266051046054,
          -69.76020368603098
        ]
      }
    },
    {
      "type": "Feature",
      "properties": {
        "norad_id": 35895,
        "name": "COSMOS 2251 DEB",
        "group": "cosmos-2251-debris",
        "lat": -59.27861927750192,
        "lon": -172.66312638714862,
        "alt_km": 1036.1240881883796,
        "timestamp": "2025-12-17T23:38:07.250276+00:00",
        "meta_object_name": "COSMOS 2251 DEB",
        "meta_object_id": "1993-036AUJ",
        "meta_epoch": "2025-12-11T07:10:31.732032",
        "meta_mean_motion": 14.01513994,
        "meta_eccentricity": 0.01987879,
        "meta_inclination": 74.0502,
        "meta_ra_of_asc_node": 350.1634,
        "meta_arg_of_pericenter": 88.7843,
        "meta_mean_anomaly": 273.6056,
        "meta_ephemeris_type": 0,
        "meta_classification_type": "U",
        "meta_norad_cat_id": 35895,
        "meta_element_set_no": 999,
        "meta_rev_at_epoch": 58992,
        "meta_bstar": 0.0020881347,
        "meta_mean_motion_dot": 3.73e-05,
        "meta_mean_motion_ddot": 0,
        "tle_line1": "1 35895U 93036AUJ 25345.29897838  .00003730  00000+0  20881-2 0  9997",
        "tle_line2": "2 35895  74.0502 350.1634 0198787  88.7843 273.6056 14.01513994589929"
      },
      "geometry": {
        "type": "Point",
        "coordinates": [
          -172.66312638714862,
          -59.27861927750192
        ]
      }
    },
    {
      "type": "Feature",
      "properties": {
        "norad_id": 35898,
        "name": "COSMOS 2251 DEB",
        "group": "cosmos-2251-debris",
        "lat": 61.32044396131863,
        "lon": -41.49195710280908,
        "alt_km": 521.6081511907196,
        "timestamp": "2025-12-17T23:38:07.250286+00:00",
        "meta_object_name": "COSMOS 2251 DEB",
        "meta_object_id": "1993-036AUM",
        "meta_epoch": "2025-12-17T02:32:30.687072",
        "meta_mean_motion": 14.94779467,
        "meta_eccentricity": 0.00792454,
        "meta_inclination": 73.9918,
        "meta_ra_of_asc_node": 288.6268,
        "meta_arg_of_pericenter": 70.8936,
        "meta_mean_anomaly": 307.548,
        "meta_ephemeris_type": 0,
        "meta_classification_type": "U",
        "meta_norad_cat_id": 35898,
        "meta_element_set_no": 999,
        "meta_rev_at_epoch": 66875,
        "meta_bstar": 0.00065982938,
        "meta_mean_motion_dot": 7.606e-05,
        "meta_mean_motion_ddot": 0,
        "tle_line1": "1 35898U 93036AUM 25351.10591073  .00007606  00000+0  65983-3 0  9998",
        "tle_line2": "2 35898  73.9918 288.6268 0079245  70.8936 307.5480 14.94779467668759"
      },
      "geometry": {
        "type": "Point",
        "coordinates": [
          -41.49195710280908,
          61.32044396131863
        ]
      }
    },
    {
      "type": "Feature",
      "properties": {
        "norad_id": 35901,
        "name": "COSMOS 2251 DEB",
        "group": "cosmos-2251-debris",
        "lat": -50.99793777429591,
        "lon": -8.665384160744912,
        "alt_km": 546.4167134683012,
        "timestamp": "2025-12-17T23:38:07.250296+00:00",
        "meta_object_name": "COSMOS 2251 DEB",
        "meta_object_id": "1993-036AUQ",
        "meta_epoch": "2025-12-17T08:00:29.718720",
        "meta_mean_motion": 15.07479239,
        "meta_eccentricity": 0.00074022,
        "meta_inclination": 74.0109,
        "meta_ra_of_asc_node": 13.411,
        "meta_arg_of_pericenter": 347.5455,
        "meta_mean_anomaly": 26.4719,
        "meta_ephemeris_type": 0,
        "meta_classification_type": "U",
        "meta_norad_cat_id": 35901,
        "meta_element_set_no": 999,
        "meta_rev_at_epoch": 86196,
        "meta_bstar": 0.0023738412,
        "meta_mean_motion_dot": 0.00036185,
        "meta_mean_motion_ddot": 0,
        "tle_line1": "1 35901U 93036AUQ 25351.33367730  .00036185  00000+0  23738-2 0  9994",
        "tle_line2": "2 35901  74.0109  13.4110 0007402 347.5455  26.4719 15.07479239861963"
      },
      "geometry": {
        "type": "Point",
        "coordinates": [
          -8.665384160744912,
          -50.99793777429591
        ]
      }
    },
    {
      "type": "Feature",
      "properties": {
        "norad_id": 35902,
        "name": "COSMOS 2251 DEB",
        "group": "cosmos-2251-debris",
        "lat": 22.624693400579197,
        "lon": 38.18974733752702,
        "alt_km": 874.412034652426,
        "timestamp": "2025-12-17T23:38:07.250306+00:00",
        "meta_object_name": "COSMOS 2251 DEB",
        "meta_object_id": "1993-036AUR",
        "meta_epoch": "2025-12-12T01:33:56.017152",
        "meta_mean_motion": 14.26898947,
        "meta_eccentricity": 0.01020569,
        "meta_inclination": 73.9828,
        "meta_ra_of_asc_node": 235.8058,
        "meta_arg_of_pericenter": 350.6999,
        "meta_mean_anomaly": 9.2255,
        "meta_ephemeris_type": 0,
        "meta_classification_type": "U",
        "meta_norad_cat_id": 35902,
        "meta_element_set_no": 999,
        "meta_rev_at_epoch": 61120,
        "meta_bstar": 0.0016300387,
        "meta_mean_motion_dot": 4.159e-05,
        "meta_mean_motion_ddot": 0,
        "tle_line1": "1 35902U 93036AUR 25346.06523168  .00004159  00000+0  16300-2 0  9991",
        "tle_line2": "2 35902  73.9828 235.8058 0102056 350.6999   9.2255 14.26898947611205"
      },
      "geometry": {
        "type": "Point",
        "coordinates": [
          38.18974733752702,
          22.624693400579197
        ]
      }
    },
    {
      "type": "Feature",
      "properties": {
        "norad_id": 35905,
        "name": "COSMOS 2251 DEB",
        "group": "cosmos-2251-debris",
        "lat": 29.37270756569718,
        "lon": -150.5602300180103,
        "alt_km": 590.856956063335,
        "timestamp": "2025-12-17T23:38:07.250316+00:00",
        "meta_object_name": "COSMOS 2251 DEB",
        "meta_object_id": "1993-036AUU",
        "meta_epoch": "2025-12-16T20:16:13.880640",
        "meta_mean_motion": 14.99078139,
        "meta_eccentricity": 0.00906751,
        "meta_inclination": 74.0313,
        "meta_ra_of_asc_node": 202.4789,
        "meta_arg_of_pericenter": 281.603,
        "meta_mean_anomaly": 77.4989,
        "meta_ephemeris_type": 0,
        "meta_classification_type": "U",
        "meta_norad_cat_id": 35905,
        "meta_element_set_no": 999,
        "meta_rev_at_epoch": 88644,
        "meta_bstar": 0.00037661348,
        "meta_mean_motion_dot": 4.941e-05,
        "meta_mean_motion_ddot": 0,
        "tle_line1": "1 35905U 93036AUU 25350.84460510  .00004941  00000+0  37661-3 0  9999",
        "tle_line2": "2 35905  74.0313 202.4789 0090675 281.6030  77.4989 14.99078139886446"
      },
      "geometry": {
        "type": "Point",
        "coordinates": [
          -150.5602300180103,
          29.37270756569718
        ]
      }
    }
  ]
}